OSCAR 7 (AO-7)          
1 07530U 74089B   26199.52413094 -.00000050  00000+0 -25006-4 0  9991
2 07530 101.9906 213.0974 0012645  72.2029  82.3408 12.53698622364449
PHASE 3B (AO-10)        
1 14129U 83058B   26198.95931596 -.00000201  00000+0  00000+0 0  9996
2 14129  25.9392 214.4954 6000614 124.1231 307.7423  2.05871393296123
UOSAT 2 (UO-11)         
1 14781U 84021B   26199.83419167  .00000595  00000+0  66071-4 0  9994
2 14781  97.8079 165.0607 0009232  81.3382 278.8882 14.90853767261843
LUSAT (LO-19)           
1 20442U 90005G   26199.85686405  .00000022  00000+0  24421-4 0  9995
2 20442  98.8846 222.5341 0012622 111.5754 248.6776 14.34131325906937
EYESAT A (AO-27)        
1 22825U 93061C   26199.74520057  .00000024  00000+0  25969-4 0  9995
2 22825  98.6865 267.1447 0008562  15.9631 344.1820 14.30949619711513
ITAMSAT (IO-26)         
1 22826U 93061D   26199.78509483  .00000030  00000+0  28042-4 0  9992
2 22826  98.6814 267.1054 0008732 358.7298   1.3861 14.31377341711838
RADIO ROSTO (RS15)      
1 23439U 94085A   26199.77798479 -.00000037  00000+0  14843-3 0  9995
2 23439  64.8145 252.1261 0157058 358.0504   1.9791 11.27583537299460
JAS-2 (FO-29)           
1 24278U 96046B   26199.51073439 -.00000035  00000+0  89785-7 0  9999
2 24278  98.5218  44.0889 0350199  15.3498 345.7949 13.53275823477400
TECHSAT 1B (GO-32)      
1 25397U 98043D   26198.97124761  .00000003  00000+0  21480-4 0  9994
2 25397  99.0087 192.5089 0002266 110.8541 249.2880 14.24433657455715
ISS (ZARYA)             
1 25544U 98067A   26199.86307315  .00004074  00000+0  81939-4 0  9998
2 25544  51.6317 143.3357 0006808 311.9482  48.0925 15.49045026576665
PCSAT (NO-44)           
1 26931U 01043C   26199.58962571  .00000019  00000+0  38009-4 0  9992
2 26931  67.0497 163.0499 0005875 266.9181  93.1249 14.31965710294949
SAUDISAT 1C (SO-50)     
1 27607U 02058C   26199.78040280  .00000379  00000+0  62802-4 0  9993
2 27607  64.5520  31.2314 0074418 256.6189 102.6613 14.83102312269147
CUTE-1 (CO-55)          
1 27844U 03031E   26199.29733931  .00000128  00000+0  74435-4 0  9993
2 27844  98.6744 207.4657 0010867  94.6885 265.5536 14.24352673196104
CUBESAT XI-IV (CO-57)   
1 27848U 03031J   26198.95002441  .00000107  00000+0  66203-4 0  9995
2 27848  98.6776 206.8106 0010632 112.1739 248.0569 14.23635431195756
MOZHAETS 4 (RS22)       
1 27939U 03042A   26199.86592954  .00000669  00000+0  11119-3 0  9990
2 27939  98.3475  25.1214 0011500 161.7179 309.2604 14.73518775220211
CUBESAT XI-V            
1 28895U 05043F   26199.38529580  .00000626  00000+0  10630-3 0  9997
2 28895  98.3020 355.6693 0015320 105.9745 254.3151 14.72706792106345
CUTE-1.7+APD II (CO-65) 
1 32785U 08021C   26199.80008588  .00001885  00000+0  12108-3 0  9996
2 32785  97.8299 181.8863 0006834 284.4890  75.5579 15.09718171989961
SEEDS II (CO-66)        
1 32791U 08021J   26199.46116429  .00009670  00000+0  29894-3 0  9999
2 32791  97.7530 198.8780 0003459 149.6253 210.5190 15.33733639992086
YUBILEINY (RS30)        
1 32953U 08025A   26199.80682667 -.00000008  00000+0 -12521-3 0  9990
2 32953  82.5070 335.7700 0018703 240.5762 119.3452 12.43180564823626
KKS-1 (KISEKI)          
1 33499U 09002H   26199.82997796  .00000607  00000+0  81199-4 0  9997
2 33499  98.1172 122.7735 0007720 176.9750 183.1511 14.83193995940887
SWISSCUBE               
1 35932U 09051B   26199.70847584  .00000425  00000+0  93582-4 0  9998
2 35932  98.4003 108.1426 0007983 109.6999 250.5063 14.62534308893760
BEESAT-1                
1 35933U 09051C   26199.73440735  .00000344  00000+0  78836-4 0  9994
2 35933  98.3929 107.7381 0006295 120.7003 239.4819 14.61764858893799
ITUPSAT1                
1 35935U 09051E   26199.68445377  .00000317  00000+0  75415-4 0  9997
2 35935  98.4014 106.8454 0008289 133.4128 226.7763 14.60481463893336
XIWANG-1 (HOPE-1)       
1 36122U 09072B   26199.85951378 -.00000031  00000+0  34999-4 0  9997
2 36122 100.4043 153.1885 0007659 156.7572 203.3888 13.16439137797170
O/OREOS (USA 219)       
1 37224U 10062C   26199.87143271  .00000973  00000+0  97460-4 0  9995
2 37224  71.9700   8.5594 0014218 357.9749   2.1362 14.93859324121371
JUGNU                   
1 37839U 11058B   26199.84185546  .00000351  00000+0  43971-4 0  9999
2 37839  19.9600 116.1069 0018634  66.5524 337.1965 14.13784058763518
SRMSAT                  
1 37841U 11058D   26199.48245728  .00000322  00000+0  30967-4 0  9990
2 37841  19.9704 230.0483 0011664 187.3521 320.5069 14.11581472762240
STRAND-1                
1 39090U 13009E   26199.73373043  .00000103  00000+0  48978-4 0  9994
2 39090  98.3938  19.1941 0009578 131.5645 228.6365 14.37180014701595
ZACUBE-1 (TSHEPISOSAT)  
1 39417U 13066B   26199.80035074  .00001181  00000+0  94782-4 0  9998
2 39417  97.8003 162.2915 0044062 143.6350 216.7882 15.01337750685473
GOMX-1                  
1 39430U 13066Q   26199.84800809  .00000614  00000+0  99250-4 0  9998
2 39430  97.6463  38.3123 0127919 336.4536  23.0846 14.69547400674566
